        **Browser-pasteable ISS example**:
        ```
        /api/spice/sgp4/propagate?t0=2024-01-15T12:00:00&output_type=json&body=%7B%22line1%22%3A%221%2025544U%2098067A%20%20%2024015.50000000%20%20.00016717%20%2000000-0%20%2010270-3%200%20%209025%22%2C%22line2%22%3A%222%2025544%20%2051.6400%20208.9163%200006703%20%2030.0825%20330.0579%2015.49560830%20%20%20%2019%22%7D
        ```
      tags:
        - SPICE/SGP4
      parameters:
        - name: t0
          in: query
          required: true
          description: Start time / single time (UTC string, e.g., "2024-01-15T12:00:00")
          schema:
            type: string
        - name: tf
          in: query
          required: false
          description: End time (UTC string). Required for range mode.
          schema:
            type: string
        - name: step
          in: query
          required: false
          description: Time step size. Required for range mode.
          schema:
            type: number
        - name: unit
          in: query
          description: Time step unit (only used in range mode)
          schema:
            type: string
            enum: [sec, min]
            default: sec
        - name: wgs
          in: query
          description: Geophysical model to use
          schema:
            type: string
            enum: [wgs72, wgs84]
            default: wgs72
        - name: input_type
          in: query
          description: Input format type
          schema:
            type: string
            enum: [tle, omm]
            default: tle
        - name: output_type
          in: query
          description: Output format (json or txt). TXT format returns CSV with datetime,et,x,y,z,vx,vy,vz columns.
          schema:
            type: string
            enum: [json, txt]
            default: txt
        - name: batch_size
          in: query
          description: Number of rows to buffer before flushing to client (txt output only).
          schema:
            type: integer
            minimum: 1
            maximum: 1209602
        - name: body
          in: query
          required: true
          description: URL-encoded JSON containing TLE ({"line1":"...","line2":"..."}) or OMM data.
          schema:
            type: string
      responses:
        '200':
          description: Successfully propagated
          content:
            application/json:
              schema:
                $ref: '#/components/schemas/PropagateRangeResponse'
            text/csv:
              schema:
                type: string
        '400':
          description: Missing or invalid parameters
          content:
            application/json:
              schema:
                $ref: '#/components/schemas/Error'

  /api/spice/sgp4/omm/parse:
    post:
      summary: Parse OMM
      description: |
        Parse an Orbital Mean-Elements Message (OMM) JSON into orbital elements.
        Also returns the equivalent TLE representation.
      tags:
        - SPICE/SGP4/OMM
      requestBody:
        required: true
        content:
          application/json:
            schema:
              $ref: '#/components/schemas/OMMInput'
            example:
              OBJECT_NAME: "ISS (ZARYA)"
              OBJECT_ID: "1998-067A"
              EPOCH: "2024-01-15T12:00:00.000"
              MEAN_MOTION: 15.49560830
              ECCENTRICITY: 0.0006703
              INCLINATION: 51.6400
              RA_OF_ASC_NODE: 208.9163
              ARG_OF_PERICENTER: 30.0825
              MEAN_ANOMALY: 330.0579
              NORAD_CAT_ID: 25544
              BSTAR: 0.00010270
              MEAN_MOTION_DOT: 0.00016717
      responses:
        '200':
          description: Successfully parsed OMM
          content:
            application/json:
              schema:
                $ref: '#/components/schemas/OMMParseResponse'
        '400':
          description: Missing or invalid OMM fields
          content:
            application/json:
              schema:
                $ref: '#/components/schemas/Error'

  /api/spice/sgp4/omm/to-tle:
    post:
      summary: Convert OMM to TLE
      description: Convert an Orbital Mean-Elements Message (OMM) JSON to Two-Line Element format.
      tags:
        - SPICE/SGP4/OMM
      requestBody:
        required: true
        content:
          application/json:
            schema:
              $ref: '#/components/schemas/OMMInput'
            example:
              OBJECT_NAME: "ISS (ZARYA)"
              OBJECT_ID: "1998-067A"
              EPOCH: "2024-01-15T12:00:00.000"
              MEAN_MOTION: 15.49560830
              ECCENTRICITY: 0.0006703
              INCLINATION: 51.6400
              RA_OF_ASC_NODE: 208.9163
              ARG_OF_PERICENTER: 30.0825
              MEAN_ANOMALY: 330.0579
              NORAD_CAT_ID: 25544
              BSTAR: 0.00010270
              MEAN_MOTION_DOT: 0.00016717
      responses:
        '200':
          description: Successfully converted to TLE
          content:
            application/json:
              schema:
                $ref: '#/components/schemas/TLEOutput'
        '400':
          description: Missing or invalid OMM fields
          content:
            application/json:
              schema:
                $ref: '#/components/schemas/Error'

  /api/spice/sgp4/tle/to-omm:
    post:
      summary: Convert TLE to OMM
      description: Convert a Two-Line Element set to Orbital Mean-Elements Message (OMM) JSON format.
      tags:
        - SPICE/SGP4/TLE
      requestBody:
        required: true
        content:
          application/json:
            schema:
              $ref: '#/components/schemas/TLEInput'
            example:
              line1: "1 25544U 98067A   24015.50000000  .00016717  00000-0  10270-3 0  9025"
              line2: "2 25544  51.6400 208.9163 0006703  30.0825 330.0579 15.49560830    19"
              name: "ISS (ZARYA)"
      responses:
        '200':
          description: Successfully converted to OMM
          content:
            application/json:
              schema:
                $ref: '#/components/schemas/OMMOutput'
        '400':
          description: Missing or invalid TLE lines
          content:
            application/json:
              schema:
                $ref: '#/components/schemas/Error'

  /api/spice/sgp4/time/utc-to-et:
    get:
      summary: Convert UTC to Ephemeris Time
      description: |
        Convert a UTC time string to Ephemeris Time (ET).
        ET is measured in seconds past J2000 TDB (Barycentric Dynamical Time).
      tags:
        - SPICE/SGP4/Time
      parameters:
        - name: utc
          in: query
          required: true
          description: UTC time string (e.g., "2024-01-15T12:00:00")
          schema:
            type: string
          example: "2024-01-15T12:00:00"
      responses:
        '200':
          description: Successfully converted
          content:
            application/json:
              schema:
                $ref: '#/components/schemas/UTCtoETResponse'
        '400':
          description: Missing or invalid UTC parameter
          content:
            application/json:
              schema:
                $ref: '#/components/schemas/Error'

  /api/spice/sgp4/time/et-to-utc:
    get:
      summary: Convert Ephemeris Time to UTC
      description: |
        Convert Ephemeris Time (ET) to a UTC time string.
        ET is measured in seconds past J2000 TDB.
      tags:
        - SPICE/SGP4/Time
      parameters:
        - name: et
          in: query
          required: true
          description: Ephemeris time in seconds past J2000 TDB
          schema:
            type: number
          example: 758894469.184
      responses:
        '200':
          description: Successfully converted
          content:
            application/json:
              schema:
                $ref: '#/components/schemas/ETtoUTCResponse'
        '400':
          description: Missing or invalid ET parameter
          content:
            application/json:
              schema:
                $ref: '#/components/schemas/Error'

  /api/models/:
    get:
      summary: List available models
      description: Get a list of all available geophysical models.
      tags:
        - Models
      responses:
        '200':
          description: List of models
          content:
            application/json:
              schema:
                $ref: '#/components/schemas/ModelsListResponse'

  /api/models/wgs/{name}:
    get:
      summary: Get model details
      description: Get detailed information about a specific WGS geophysical model.
      tags:
        - Models
      parameters:
        - name: name
          in: path
          required: true
          description: Model name
          schema:
            type: string
            enum: [wgs72, wgs84]
          example: wgs72
      responses:
        '200':
          description: Model details
          content:
            application/json:
              schema:
                $ref: '#/components/schemas/GeophysicalModel'
        '404':
          description: Model not found
          content:
            application/json:
              schema:
                $ref: '#/components/schemas/Error'

components:
  schemas:
    TLEInput:
      type: object
      required:
        - line1
        - line2
      properties:
        line1:
          type: string
          description: TLE line 1 (69 characters)
        line2:
          type: string
          description: TLE line 2 (69 characters)
        name:
          type: string
          description: Satellite name (optional, used for TLE to OMM conversion)

